GALAXY 33 (G-33)        
1 54026U 22128A   26167.51594834  .00000077  00000+0  00000+0 0  9995
2 54026   0.0106  18.3750 0001603  69.2524 229.9028  1.00271787 13737
GALAXY 34 (G-34)        
1 54027U 22128B   26166.51861343  .00000061  00000+0  00000+0 0  9990
2 54027   0.0129   6.0107 0001310  96.4818 219.0064  1.00271904 13894
ANGOSAT 2               
1 54033U 22131A   26167.61808743  .00000133  00000+0  00000+0 0  9998
2 54033   0.0286  79.1177 0000688  34.6138  36.6624  1.00271522 13474
EUTELSAT HOTBIRD 13F    
1 54048U 22134A   26166.54669356  .00000089  00000+0  00000+0 0  9993
2 54048   0.0519 292.7335 0002244  60.0843 120.8350  1.00270937 13363
LDPE-2                  
1 54219U 22144A   26167.54074235  .00000124  00000+0  00000+0 0  9991
2 54219   5.6120  63.6583 0001817 104.4158 133.3059  1.00531838 11834
EUTELSAT HOTBIRD 13G    
1 54225U 22146A   26166.54669356  .00000089  00000+0  00000+0 0  9993
2 54225   0.0509 232.5107 0001705 316.5388 284.5981  1.00269766  7451
ZHONGXING-19            
1 54230U 22148A   26167.57458057  .00000000  00000+0  00000+0 0  9992
2 54230   0.0228  18.5559 0002313  92.9162 163.4151  1.00270255 13376
GALAXY 31 (G-31)        
1 54243U 22153A   26167.51828836  .00000012  00000+0  00000+0 0  9995
2 54243   0.0149  39.8765 0001016  36.2552 254.2250  1.00270941  7127
GALAXY 32 (G-32)        
1 54244U 22153B   26165.95583885 -.00000197  00000+0  00000+0 0  9999
2 54244   0.0165 349.6788 0015287 254.3091 272.5395  1.00491998 13126
EUTELSAT 10B            
1 54259U 22157A   26167.54417277  .00000066  00000+0  00000+0 0  9991
2 54259   0.0645  98.4511 0001190  13.0107 359.2484  1.00266288 13027
GALAXY 35 (G-35)        
1 54741U 22170A   26167.49504295  .00000000  00000+0  00000+0 0  9991
2 54741   0.0201  28.2868 0001849  58.7079 262.8757  1.00268559 12880
GALAXY 36 (G-36)        
1 54742U 22170B   26167.52461506 -.00000187  00000+0  00000+0 0  9990
2 54742   0.0181 256.2325 0002502 188.0884 280.3329  1.00270253 12768
METEOSAT-12 (MTG-I1)    
1 54743U 22170C   26167.11442372 -.00000009  00000+0  00000+0 0  9999
2 54743   0.7370  22.7991 0003143  71.6629 210.7035  1.00272351 12961
SHIJIAN-23 (SJ-23)      
1 55131U 23002A   26166.74173691 -.00000244  00000+0  00000+0 0  9990
2 55131   3.7140  78.3309 0003808 271.7919 329.9907  1.00087863 12495
APSTAR-6E               
1 55239U 23005A   26166.71330346 -.00000316  00000+0  00000+0 0  9991
2 55239   0.0372 251.5524 0001114 313.0083  90.2366  1.00268070 18679
USA 342                 
1 55263U 23008A   26163.62596264  .00000000  00000+0  00000+0 0  9990
2 55263   0.0059 338.0459 0000206 258.5222 273.5711  1.00272733 12478
LDPE-3A                 
1 55264U 23008B   26167.49628112  .00000037  00000+0  00000+0 0  9998
2 55264   2.3464  81.6711 0001088  64.6793 190.8462  0.99144694 11805
ELEKTRO-L 4             
1 55506U 23016A   26166.80585691 -.00000057  00000+0  00000+0 0  9997
2 55506   0.0735 165.6402 0000754   8.2244 186.1328  1.00270697 12327
AMAZONAS NEXUS          
1 55508U 23017A   26166.53213350 -.00000280  00000+0  00000+0 0  9998
2 55508   0.0383  35.9590 0004916  30.4729 327.9525  1.00267577  7022
ZHONGXING-26            
1 55686U 23023A   26167.66164604 -.00000356  00000+0  00000+0 0  9998
2 55686   0.0663  69.9073 0003277  20.9293 177.4142  1.00271170 12227
LUCH-5X (OLYMP-K 2)     
1 55841U 23031A   26166.41385493  .00000036  00000+0  00000+0 0  9997
2 55841   0.0284  59.9062 0000623 161.0098 253.7534  1.00271794 11929
GAOFEN-13 02            
1 55912U 23036A   26167.59966249 -.00000221  00000+0  00000+0 0  9992
2 55912   1.0203   1.0845 0004143 335.5239 292.4346  1.00270520 12088
SES-18                  
1 55970U 23038A   26165.95341218 -.00000096  00000+0  00000+0 0  9999
2 55970   0.0148 303.3095 0000258 342.6198 217.4462  1.00270931 12082
SES-19                  
1 55971U 23038B   26167.58688729  .00000086  00000+0  00000+0 0  9990
2 55971   0.0104   0.5342 0001381  80.6529 260.0435  1.00271189 12081
INTELSAT 40E (IS-40E)   
1 56174U 23052A   26166.38360812  .00000000  00000+0  00000+0 0  9995
2 56174   0.0182  12.4035 0001931 113.0025 185.3673  1.00269497 11808
VIASAT-3 F1             
1 56370U 23060A   26166.31275105  .00000000  00000+0  00000+0 0  9995
2 56370   0.0244 339.9973 0001007  93.6302 213.5951  1.00270502 11417
ARCTURUS                
1 56371U 23060B   26167.01836666 -.00000064  00000+0  00000+0 0  9990
2 56371   2.7726  79.9668 0002528  48.7696 214.6630  1.00272344 11445
GS-1                    
1 56372U 23060C   26165.91571983 -.00000221  00000+0  00000+0 0  9991
2 56372   2.7203  79.8626 0003785 282.6047 319.7725  1.00275284  7515
BEIDOU-3 G4             
1 56564U 23066A   26167.64125492 -.00000283  00000+0  00000+0 0  9990
2 56564   0.4871 331.3399 0004322 181.3638 123.0801  1.00273827 11388
ARABSAT-7B (BADR-8)     
1 56757U 23075A   26166.19285493  .00000148  00000+0  00000+0 0  9990
2 56757   0.0785  30.3075 0004379 352.7494 335.8524  1.00270389 11098
NVS-01 (IRNSS-1J)       
1 56759U 23076A   26167.56788270 -.00000337  00000+0  00000+0 0  9997
2 56759   2.1670 244.3756 0003182  36.2432 318.1169  1.00264966 11101
